{
  "type": "FeatureCollection",
  "features": [
    {
      "type": "Feature",
      "properties": {
        "norad_id": 36036,
        "name": "SMOS",
        "group": "resource",
        "lat": -7.425327852850334,
        "lon": 162.68440457458644,
        "alt_km": 762.9201544087518,
        "timestamp": "2025-12-02T08:59:32.376351+00:00",
        "meta_object_name": "SMOS",
        "meta_object_id": "2009-059A",
        "meta_epoch": "2025-12-02T02:21:20.121984",
        "meta_mean_motion": 14.39786553,
        "meta_eccentricity": 0.0001056,
        "meta_inclination": 98.4384,
        "meta_ra_of_asc_node": 161.3035,
        "meta_arg_of_pericenter": 72.1063,
        "meta_mean_anomaly": 288.024,
        "meta_ephemeris_type": 0,
        "meta_classification_type": "U",
        "meta_norad_cat_id": 36036,
        "meta_element_set_no": 999,
        "meta_rev_at_epoch": 84509,
        "meta_bstar": 0.00016854,
        "meta_mean_motion_dot": 4.85e-06,
        "meta_mean_motion_ddot": 0,
        "tle_line1": "1 36036U 09059A   25336.09814956  .00000485  00000+0  16854-3 0  9995",
        "tle_line2": "2 36036  98.4384 161.3035 0001056  72.1063 288.0240 14.39786553845097"
      },
      "geometry": {
        "type": "Point",
        "coordinates": [
          162.68440457458644,
          -7.425327852850334
        ]
      }
    },
    {
      "type": "Feature",
      "properties": {
        "norad_id": 36110,
        "name": "YAOGAN-7",
        "group": "resource",
        "lat": -22.669332297079126,
        "lon": 34.787807504353765,
        "alt_km": 648.6516324212462,
        "timestamp": "2025-12-02T08:59:32.376362+00:00",
        "meta_object_name": "YAOGAN-7",
        "meta_object_id": "2009-069A",
        "meta_epoch": "2025-12-02T03:12:00.304704",
        "meta_mean_motion": 14.77705569,
        "meta_eccentricity": 0.0023853,
        "meta_inclination": 98.0304,
        "meta_ra_of_asc_node": 217.9279,
        "meta_arg_of_pericenter": 317.0847,
        "meta_mean_anomaly": 42.8501,
        "meta_ephemeris_type": 0,
        "meta_classification_type": "U",
        "meta_norad_cat_id": 36110,
        "meta_element_set_no": 999,
        "meta_rev_at_epoch": 86052,
        "meta_bstar": 0.00012541,
        "meta_mean_motion_dot": 8.49e-06,
        "meta_mean_motion_ddot": 0,
        "tle_line1": "1 36110U 09069A   25336.13333686  .00000849  00000+0  12541-3 0  9993",
        "tle_line2": "2 36110  98.0304 217.9279 0023853 317.0847  42.8501 14.77705569860527"
      },
      "geometry": {
        "type": "Point",
        "coordinates": [
          34.787807504353765,
          -22.669332297079126
        ]
      }
    },
    {
      "type": "Feature",
      "properties": {
        "norad_id": 36605,
        "name": "TANDEM-X",
        "group": "resource",
        "lat": -14.510648011748017,
        "lon": -16.15447420296916,
        "alt_km": 513.5179844346039,
        "timestamp": "2025-12-02T08:59:32.376372+00:00",
        "meta_object_name": "TANDEM-X",
        "meta_object_id": "2010-030A",
        "meta_epoch": "2025-12-01T15:40:02.616384",
        "meta_mean_motion": 15.19150166,
        "meta_eccentricity": 0.0001799,
        "meta_inclination": 97.4445,
        "meta_ra_of_asc_node": 341.1948,
        "meta_arg_of_pericenter": 94.6739,
        "meta_mean_anomaly": 265.4701,
        "meta_ephemeris_type": 0,
        "meta_classification_type": "U",
        "meta_norad_cat_id": 36605,
        "meta_element_set_no": 999,
        "meta_rev_at_epoch": 85665,
        "meta_bstar": 8.3295316e-05,
        "meta_mean_motion_dot": 1.682e-05,
        "meta_mean_motion_ddot": 0,
        "tle_line1": "1 36605U 10030A   25335.65280806  .00001682  00000+0  83295-4 0  9994",
        "tle_line2": "2 36605  97.4445 341.1948 0001799  94.6739 265.4701 15.19150166856659"
      },
      "geometry": {
        "type": "Point",
        "coordinates": [
          -16.15447420296916,
          -14.510648011748017
        ]
      }
    },
    {
      "type": "Feature",
      "properties": {
        "norad_id": 36795,
        "name": "CARTOSAT-2B",
        "group": "resource",
        "lat": 82.05095020179417,
        "lon": -75.73991216983987,
        "alt_km": 617.1260767538533,
        "timestamp": "2025-12-02T08:59:32.376383+00:00",
        "meta_object_name": "CARTOSAT-2B",
        "meta_object_id": "2010-035A",
        "meta_epoch": "2025-12-02T03:42:29.915424",
        "meta_mean_motion": 14.78761097,
        "meta_eccentricity": 0.0012849,
        "meta_inclination": 97.7868,
        "meta_ra_of_asc_node": 25.5279,
        "meta_arg_of_pericenter": 108.6349,
        "meta_mean_anomaly": 251.6259,
        "meta_ephemeris_type": 0,
        "meta_classification_type": "U",
        "meta_norad_cat_id": 36795,
        "meta_element_set_no": 999,
        "meta_rev_at_epoch": 83073,
        "meta_bstar": 0.00013575,
        "meta_mean_motion_dot": 9.48e-06,
        "meta_mean_motion_ddot": 0,
        "tle_line1": "1 36795U 10035A   25336.15451291  .00000948  00000+0  13575-3 0  9990",
        "tle_line2": "2 36795  97.7868  25.5279 0012849 108.6349 251.6259 14.78761097830733"
      },
      "geometry": {
        "type": "Point",
        "coordinates": [
          -75.73991216983987,
          82.05095020179417
        ]
      }
    },
    {
      "type": "Feature",
      "properties": {
        "norad_id": 36834,
        "name": "YAOGAN-10",
        "group": "resource",
        "lat": -44.31445073825464,
        "lon": 4.079945092578518,
        "alt_km": 622.398213809679,
        "timestamp": "2025-12-02T08:59:32.376393+00:00",
        "meta_object_name": "YAOGAN-10",
        "meta_object_id": "2010-038A",
        "meta_epoch": "2025-12-02T04:44:29.539104",
        "meta_mean_motion": 14.84544997,
        "meta_eccentricity": 0.0001504,
        "meta_inclination": 97.9151,
        "meta_ra_of_asc_node": 356.0973,
        "meta_arg_of_pericenter": 84.9392,
        "meta_mean_anomaly": 4.3164,
        "meta_ephemeris_type": 0,
        "meta_classification_type": "U",
        "meta_norad_cat_id": 36834,
        "meta_element_set_no": 999,
        "meta_rev_at_epoch": 82797,
        "meta_bstar": 0.00012812,
        "meta_mean_motion_dot": 1.027e-05,
        "meta_mean_motion_ddot": 0,
        "tle_line1": "1 36834U 10038A   25336.19756411  .00001027  00000+0  12812-3 0  9995",
        "tle_line2": "2 36834  97.9151 356.0973 0001504  84.9392   4.3164 14.84544997827972"
      },
      "geometry": {
        "type": "Point",
        "coordinates": [
          4.079945092578518,
          -44.31445073825464
        ]
      }
    },
    {
      "type": "Feature",
      "properties": {
        "norad_id": 37216,
        "name": "COSMO-SKYMED 4",
        "group": "resource",
        "lat": -31.254569011533064,
        "lon": 162.67653779988444,
        "alt_km": 629.007736994884,
        "timestamp": "2025-12-02T08:59:32.376404+00:00",
        "meta_object_name": "COSMO-SKYMED 4",
        "meta_object_id": "2010-060A",
        "meta_epoch": "2025-12-02T04:16:25.781952",
        "meta_mean_motion": 14.821652,
        "meta_eccentricity": 0.0001484,
        "meta_inclination": 97.8814,
        "meta_ra_of_asc_node": 157.6602,
        "meta_arg_of_pericenter": 84.7324,
        "meta_mean_anomaly": 275.4059,
        "meta_ephemeris_type": 0,
        "meta_classification_type": "U",
        "meta_norad_cat_id": 37216,
        "meta_element_set_no": 999,
        "meta_rev_at_epoch": 81538,
        "meta_bstar": 9.7509e-05,
        "meta_mean_motion_dot": 7.24e-06,
        "meta_mean_motion_ddot": 0,
        "tle_line1": "1 37216U 10060A   25336.17807618  .00000724  00000+0  97509-4 0  9999",
        "tle_line2": "2 37216  97.8814 157.6602 0001484  84.7324 275.4059 14.82165200815386"
      },
      "geometry": {
        "type": "Point",
        "coordinates": [
          162.67653779988444,
          -31.254569011533064
        ]
      }
    },
    {
      "type": "Feature",
      "properties": {
        "norad_id": 37387,
        "name": "RESOURCESAT-2",
        "group": "resource",
        "lat": 29.00354385025901,
        "lon": 35.0521679708174,
        "alt_km": 814.763624648831,
        "timestamp": "2025-12-02T08:59:32.376414+00:00",
        "meta_object_name": "RESOURCESAT-2",
        "meta_object_id": "2011-015A",
        "meta_epoch": "2025-12-02T03:47:13.416288",
        "meta_mean_motion": 14.21590159,
        "meta_eccentricity": 0.0006816,
        "meta_inclination": 98.7891,
        "meta_ra_of_asc_node": 39.7566,
        "meta_arg_of_pericenter": 69.6578,
        "meta_mean_anomaly": 290.533,
        "meta_ephemeris_type": 0,
        "meta_classification_type": "U",
        "meta_norad_cat_id": 37387,
        "meta_element_set_no": 999,
        "meta_rev_at_epoch": 75818,
        "meta_bstar": 0.0001055,
        "meta_mean_motion_dot": 1.87e-06,
        "meta_mean_motion_ddot": 0,
        "tle_line1": "1 37387U 11015A   25336.15779417  .00000187  00000+0  10550-3 0  9995",
        "tle_line2": "2 37387  98.7891  39.7566 0006816  69.6578 290.5330 14.21590159758188"
      },
      "geometry": {
        "type": "Point",
        "coordinates": [
          35.0521679708174,
          29.00354385025901
        ]
      }
    }
  ]
}